{
"type": "FeatureCollection",
"crs": { "type": "name", "properties": { "name": "urn:ogc:def:crs:OGC:1.3:CRS84" } },
"features": [
{ "type": "Feature", "properties": { "id": "node/2781261865", "amenity": "bench", "sensor_name": "bench_01", "seats": 3, "backrest": "no", "material": "recycled_plastic", "plaque": "yes", "condition": "excellent" }, "geometry": { "type": "Point", "coordinates": [ -0.015608787427244, 51.541389495422543 ] } },
{ "type": "Feature", "properties": { "id": "node/2782965938", "amenity": "bench", "sensor_name": "bench_02", "seats": 2, "backrest": "yes", "material": "recycled_plastic", "plaque": "no", "condition": "good" }, "geometry": { "type": "Point", "coordinates": [ -0.018416387429178, 51.540146995421566 ] } },
{ "type": "Feature", "properties": { "id": "node/2782965942", "amenity": "bench", "sensor_name": "bench_03", "seats": 2, "backrest": "yes", "material": "wood", "plaque": "no", "condition": "good" }, "geometry": { "type": "Point", "coordinates": [ -0.01822788742895, 51.540394795421761 ] } },
{ "type": "Feature", "properties": { "id": "node/2782965971", "amenity": "bench", "sensor_name": "bench_04", "seats": 2, "backrest": "yes", "material": "wood", "plaque": "no", "condition": "damaged" }, "geometry": { "type": "Point", "coordinates": [ -0.017343687427981, 51.541402095422512 ] } },
{ "type": "Feature", "properties": { "id": "node/3682194448", "amenity": "bench", "sensor_name": "bench_05", "seats": 3, "backrest": "yes", "material": "recycled_plastic", "plaque": "no", "condition": "fair" }, "geometry": { "type": "Point", "coordinates": [ -0.010959487427366, 51.537790695419929 ] } },
{ "type": "Feature", "properties": { "id": "node/3682207026", "amenity": "bench", "sensor_name": "bench_06", "seats": 3, "backrest": "yes", "material": "recycled_plastic", "plaque": "yes", "condition": "fair" }, "geometry": { "type": "Point", "coordinates": [ -0.014918387426772, 51.541687695422745 ] } },
{ "type": "Feature", "properties": { "id": "node/3682207029", "amenity": "bench", "sensor_name": "bench_07", "seats": 4, "backrest": "yes", "material": "wood", "plaque": "no", "condition": "good" }, "geometry": { "type": "Point", "coordinates": [ -0.011876787426755, 51.539498995421184 ] } },
{ "type": "Feature", "properties": { "id": "node/3682207032", "amenity": "bench", "sensor_name": "bench_08", "seats": 2, "backrest": "no", "material": "wood", "plaque": "no", "condition": "good" }, "geometry": { "type": "Point", "coordinates": [ -0.011657187426821, 51.539228095421002 ] } },
{ "type": "Feature", "properties": { "id": "node/3682207039", "amenity": "bench", "sensor_name": "bench_09", "seats": 3, "backrest": "no", "material": "wood", "plaque": "no", "condition": "fair" }, "geometry": { "type": "Point", "coordinates": [ -0.013740987426715, 51.540928695422217 ] } },
{ "type": "Feature", "properties": { "id": "node/3682207042", "amenity": "bench", "sensor_name": "bench_10", "seats": 2, "backrest": "yes", "material": "metal", "plaque": "no", "condition": "fair" }, "geometry": { "type": "Point", "coordinates": [ -0.014615387426783, 51.541450795422577 ] } },
{ "type": "Feature", "properties": { "id": "node/3682207044", "amenity": "bench", "sensor_name": "bench_11", "seats": 2, "backrest": "yes", "material": "metal", "plaque": "no", "condition": "good" }, "geometry": { "type": "Point", "coordinates": [ -0.013415687426692, 51.540728395422079 ] } },
{ "type": "Feature", "properties": { "id": "node/4186105101", "amenity": "bench", "sensor_name": "bench_12", "seats": 3, "backrest": "yes", "material": "wood", "plaque": "yes", "condition": "damaged" }, "geometry": { "type": "Point", "coordinates": [ -0.015082087427045, 51.541344095422524 ] } },
{ "type": "Feature", "properties": { "id": "node/4186122117", "amenity": "bench", "sensor_name": "bench_13", "seats": 2, "backrest": "no", "material": "wood", "plaque": "no", "condition": "fair" }, "geometry": { "type": "Point", "coordinates": [ -0.01368998742698, 51.540436595421859 ] } },
{ "type": "Feature", "properties": { "id": "node/4186122122", "amenity": "bench", "sensor_name": "bench_14", "seats": 2, "backrest": "yes", "material": "wood", "plaque": "yes", "condition": "excellent" }, "geometry": { "type": "Point", "coordinates": [ -0.013900587426927, 51.540682195422043 ] } },
{ "type": "Feature", "properties": { "id": "node/4382365936", "amenity": "bench", "sensor_name": "bench_15", "seats": 3, "backrest": "yes", "material": "wood", "plaque": "no", "condition": "fair" }, "geometry": { "type": "Point", "coordinates": [ -0.009973487426985, 51.537718095419862 ] } },
{ "type": "Feature", "properties": { "id": "node/4382385817", "amenity": "bench", "sensor_name": "bench_16", "seats": 3, "backrest": "yes", "material": "recycled_plastic", "plaque": "yes", "condition": "good" }, "geometry": { "type": "Point", "coordinates": [ -0.013925987428454, 51.538100995420102 ] } },
{ "type": "Feature", "properties": { "id": "node/4382385818", "amenity": "bench", "sensor_name": "bench_17", "seats": 2, "backrest": "yes", "material": "wood", "plaque": "no", "condition": "fair" }, "geometry": { "type": "Point", "coordinates": [ -0.013818687428157, 51.538528095420425 ] } },
{ "type": "Feature", "properties": { "id": "node/4382385826", "amenity": "bench", "sensor_name": "bench_18", "seats": 3, "backrest": "yes", "material": "wood", "plaque": "no", "condition": "damaged" }, "geometry": { "type": "Point", "coordinates": [ -0.011836887426985, 51.539077595420871 ] } },
{ "type": "Feature", "properties": { "id": "node/4686063221", "amenity": "bench", "sensor_name": "bench_19", "seats": 4, "backrest": "yes", "material": "wood", "plaque": "no", "condition": "excellent" }, "geometry": { "type": "Point", "coordinates": [ -0.017428287427289, 51.54264399542344 ] } },
{ "type": "Feature", "properties": { "id": "node/5062194463", "amenity": "bench", "sensor_name": "bench_20", "seats": 2, "backrest": "no", "material": "metal", "plaque": "no", "condition": "excellent" }, "geometry": { "type": "Point", "coordinates": [ -0.012185587427271, 51.538842595420689 ] } },
{ "type": "Feature", "properties": { "id": "node/6633816521", "amenity": "bench", "sensor_name": "bench_21", "seats": 4, "backrest": "yes", "material": "wood", "plaque": "no", "condition": "excellent" }, "geometry": { "type": "Point", "coordinates": [ -0.011116387427576, 51.537544595419732 ] } },
{ "type": "Feature", "properties": { "id": "node/6633816522", "amenity": "bench", "sensor_name": "bench_22", "seats": 3, "backrest": "yes", "material": "wood", "plaque": "no", "condition": "good" }, "geometry": { "type": "Point", "coordinates": [ -0.011296087427522, 51.537769795419905 ] } },
{ "type": "Feature", "properties": { "id": "node/6633816523", "amenity": "bench", "sensor_name": "bench_23", "seats": 3, "backrest": "no", "material": "recycled_plastic", "plaque": "no", "condition": "good" }, "geometry": { "type": "Point", "coordinates": [ -0.011529487427409, 51.538130995420161 ] } },
{ "type": "Feature", "properties": { "id": "node/6633816542", "amenity": "bench", "sensor_name": "bench_24", "seats": 2, "backrest": "yes", "material": "wood", "plaque": "no", "condition": "good" }, "geometry": { "type": "Point", "coordinates": [ -0.011197987428255, 51.536449095418924 ] } },
{ "type": "Feature", "properties": { "id": "node/7720655374", "amenity": "bench", "sensor_name": "bench_25", "seats": 4, "backrest": "yes", "material": "wood", "plaque": "no", "condition": "fair" }, "geometry": { "type": "Point", "coordinates": [ -0.013504987428589, 51.537561295419707 ] } },
{ "type": "Feature", "properties": { "id": "node/7728501734", "amenity": "bench", "sensor_name": "bench_26", "seats": 3, "backrest": "yes", "material": "wood", "plaque": "no", "condition": "good" }, "geometry": { "type": "Point", "coordinates": [ -0.013324087426939, 51.540242595421716 ] } },
{ "type": "Feature", "properties": { "id": "node/7728662718", "amenity": "bench", "sensor_name": "bench_27", "seats": 2, "backrest": "yes", "material": "wood", "plaque": "yes", "condition": "good" }, "geometry": { "type": "Point", "coordinates": [ -0.013841987427285, 51.540032495421571 ] } },
{ "type": "Feature", "properties": { "id": "node/7729024643", "amenity": "bench", "sensor_name": "bench_28", "seats": 2, "backrest": "yes", "material": "wood", "plaque": "no", "condition": "good" }, "geometry": { "type": "Point", "coordinates": [ -0.015380487427183, 51.541328195422487 ] } },
{ "type": "Feature", "properties": { "id": "node/7729024648", "amenity": "bench", "sensor_name": "bench_29", "seats": 4, "backrest": "yes", "material": "wood", "plaque": "no", "condition": "good" }, "geometry": { "type": "Point", "coordinates": [ -0.015013987427153, 51.541112595422334 ] } },
{ "type": "Feature", "properties": { "id": "node/7731069800", "amenity": "bench", "sensor_name": "bench_30", "seats": 3, "backrest": "yes", "material": "wood", "plaque": "no", "condition": "damaged" }, "geometry": { "type": "Point", "coordinates": [ -0.015717387427339, 51.541305795422467 ] } },
{ "type": "Feature", "properties": { "id": "node/7731153576", "amenity": "bench", "sensor_name": "bench_31", "seats": 4, "backrest": "yes", "material": "wood", "plaque": "no", "condition": "fair" }, "geometry": { "type": "Point", "coordinates": [ -0.016362487427551, 51.541419795422541 ] } },
{ "type": "Feature", "properties": { "id": "node/7741692999", "amenity": "bench", "sensor_name": "bench_32", "seats": 3, "backrest": "yes", "material": "wood", "plaque": "no", "condition": "excellent" }, "geometry": { "type": "Point", "coordinates": [ -0.016902487427201, 51.542407695423279 ] } },
{ "type": "Feature", "properties": { "id": "node/7743319010", "amenity": "bench", "sensor_name": "bench_33", "seats": 3, "backrest": "no", "material": "wood", "plaque": "yes", "condition": "good" }, "geometry": { "type": "Point", "coordinates": [ -0.016557887427232, 51.542102695423047 ] } },
{ "type": "Feature", "properties": { "id": "node/7747650789", "amenity": "bench", "sensor_name": "bench_34", "seats": 4, "backrest": "yes", "material": "wood", "plaque": "no", "condition": "good" }, "geometry": { "type": "Point", "coordinates": [ -0.013412287427448, 51.539440395421096 ] } },
{ "type": "Feature", "properties": { "id": "node/7760699175", "amenity": "bench", "sensor_name": "bench_35", "seats": 3, "backrest": "no", "material": "wood", "plaque": "no", "condition": "excellent" }, "geometry": { "type": "Point", "coordinates": [ -0.010358287426192, 51.539349095421102 ] } },
{ "type": "Feature", "properties": { "id": "node/7760699180", "amenity": "bench", "sensor_name": "bench_36", "seats": 3, "backrest": "no", "material": "recycled_plastic", "plaque": "no", "condition": "fair" }, "geometry": { "type": "Point", "coordinates": [ -0.010803787426297, 51.539494495421188 ] } },
{ "type": "Feature", "properties": { "id": "node/7760699274", "amenity": "bench", "sensor_name": "bench_37", "seats": 4, "backrest": "yes", "material": "recycled_plastic", "plaque": "yes", "condition": "good" }, "geometry": { "type": "Point", "coordinates": [ -0.01120328742634, 51.539714495421343 ] } },
{ "type": "Feature", "properties": { "id": "node/7906463162", "amenity": "bench", "sensor_name": "bench_38", "seats": 3, "backrest": "yes", "material": "wood", "plaque": "no", "condition": "good" }, "geometry": { "type": "Point", "coordinates": [ -0.010631887426459, 51.53909569542089 ] } },
{ "type": "Feature", "properties": { "id": "node/7906463163", "amenity": "bench", "sensor_name": "bench_39", "seats": 4, "backrest": "yes", "material": "wood", "plaque": "yes", "condition": "fair" }, "geometry": { "type": "Point", "coordinates": [ -0.01081128742638, 51.53936209542109 ] } },
{ "type": "Feature", "properties": { "id": "node/8875512265", "amenity": "bench", "sensor_name": "bench_40", "seats": 3, "backrest": "yes", "material": "metal", "plaque": "yes", "condition": "good" }, "geometry": { "type": "Point", "coordinates": [ -0.016806287427937, 51.541086695422266 ] } },
{ "type": "Feature", "properties": { "id": "node/8875526037", "amenity": "bench", "sensor_name": "bench_41", "seats": 3, "backrest": "yes", "material": "wood", "plaque": "no", "condition": "good" }, "geometry": { "type": "Point", "coordinates": [ -0.017547087428679, 51.540361495421749 ] } },
{ "type": "Feature", "properties": { "id": "node/8903820133", "amenity": "bench", "sensor_name": "bench_42", "seats": 2, "backrest": "yes", "material": "wood", "plaque": "no", "condition": "excellent" }, "geometry": { "type": "Point", "coordinates": [ -0.014288887428388, 51.538476995420403 ] } },
{ "type": "Feature", "properties": { "id": "node/8903820135", "amenity": "bench", "sensor_name": "bench_43", "seats": 2, "backrest": "yes", "material": "recycled_plastic", "plaque": "yes", "condition": "excellent" }, "geometry": { "type": "Point", "coordinates": [ -0.014889087427705, 51.540080595421564 ] } },
{ "type": "Feature", "properties": { "id": "node/8903820136", "amenity": "bench", "sensor_name": "bench_44", "seats": 2, "backrest": "yes", "material": "wood", "plaque": "yes", "condition": "fair" }, "geometry": { "type": "Point", "coordinates": [ -0.015273987427691, 51.540380895421791 ] } },
{ "type": "Feature", "properties": { "id": "node/8903820137", "amenity": "bench", "sensor_name": "bench_45", "seats": 2, "backrest": "yes", "material": "wood", "plaque": "no", "condition": "damaged" }, "geometry": { "type": "Point", "coordinates": [ -0.015771187427688, 51.540753995422051 ] } },
{ "type": "Feature", "properties": { "id": "node/9751788043", "amenity": "bench", "sensor_name": "bench_46", "seats": 2, "backrest": "no", "material": "metal", "plaque": "yes", "condition": "good" }, "geometry": { "type": "Point", "coordinates": [ -0.009079787425203, 51.540101195421649 ] } },
{ "type": "Feature", "properties": { "id": "node/9834728936", "amenity": "bench", "sensor_name": "bench_47", "seats": 2, "backrest": "no", "material": "recycled_plastic", "plaque": "no", "condition": "fair" }, "geometry": { "type": "Point", "coordinates": [ -0.009930987426342, 51.538781995420678 ] } },
{ "type": "Feature", "properties": { "id": "node/10778711874", "amenity": "bench", "sensor_name": "bench_48", "seats": 2, "backrest": "yes", "material": "wood", "plaque": "no", "condition": "good" }, "geometry": { "type": "Point", "coordinates": [ -0.011613387427894, 51.537365795419596 ] } },
{ "type": "Feature", "properties": { "id": "node/11153502124", "amenity": "bench", "sensor_name": "bench_49", "seats": 3, "backrest": "yes", "material": "wood", "plaque": "no", "condition": "excellent" }, "geometry": { "type": "Point", "coordinates": [ -0.011295987426999, 51.538659395420552 ] } },
{ "type": "Feature", "properties": { "id": "node/11762210318", "amenity": "bench", "sensor_name": "bench_50", "seats": 3, "backrest": "yes", "material": "wood", "plaque": "no", "condition": "excellent" }, "geometry": { "type": "Point", "coordinates": [ -0.011473787425965, 51.540550695421949 ] } },
{ "type": "Feature", "properties": { "id": "node/11762210319", "amenity": "bench", "sensor_name": "bench_51", "seats": 3, "backrest": "no", "material": "wood", "plaque": "no", "condition": "good" }, "geometry": { "type": "Point", "coordinates": [ -0.011055187425639, 51.540801795422162 ] } },
{ "type": "Feature", "properties": { "id": "node/11854040102", "amenity": "bench", "sensor_name": "bench_52", "seats": 2, "backrest": "no", "material": "wood", "plaque": "no", "condition": "fair" }, "geometry": { "type": "Point", "coordinates": [ -0.011704587425927, 51.540784895422142 ] } },
{ "type": "Feature", "properties": { "id": "node/12456428542", "amenity": "bench", "sensor_name": "bench_53", "seats": 2, "backrest": "yes", "material": "metal", "plaque": "yes", "condition": "fair" }, "geometry": { "type": "Point", "coordinates": [ -0.017448987428365, 51.540824495422086 ] } },
{ "type": "Feature", "properties": { "id": "node/13112731425", "amenity": "bench", "sensor_name": "bench_54", "seats": 4, "backrest": "yes", "material": "metal", "plaque": "no", "condition": "fair" }, "geometry": { "type": "Point", "coordinates": [ -0.013896587426412, 51.541558395422676 ] } },
{ "type": "Feature", "properties": { "id": "node/13207187464", "amenity": "bench", "sensor_name": "bench_55", "seats": 3, "backrest": "yes", "material": "recycled_plastic", "plaque": "yes", "condition": "fair" }, "geometry": { "type": "Point", "coordinates": [ -0.011857287426856, 51.539312995421021 ] } },
{ "type": "Feature", "properties": { "id": "node/13791344843", "amenity": "bench", "sensor_name": "bench_56", "seats": 3, "backrest": "yes", "material": "wood", "plaque": "no", "condition": "good" }, "geometry": { "type": "Point", "coordinates": [ -0.019148987429856, 51.539525895421107 ] } },
{ "type": "Feature", "properties": { "id": "node/13791348306", "amenity": "bench", "sensor_name": "bench_57", "seats": 2, "backrest": "yes", "material": "wood", "plaque": "no", "condition": "good" }, "geometry": { "type": "Point", "coordinates": [ -0.019360087430156, 51.539168495420839 ] } },
{ "type": "Feature", "properties": { "id": "node/13791366835", "amenity": "bench", "sensor_name": "bench_58", "seats": 3, "backrest": "yes", "material": "wood", "plaque": "no", "condition": "excellent" }, "geometry": { "type": "Point", "coordinates": [ -0.018580387429107, 51.540387295421745 ] } },
{ "type": "Feature", "properties": { "id": "node/14120374852", "amenity": "bench", "sensor_name": "bench_59", "seats": 2, "backrest": "yes", "material": "recycled_plastic", "plaque": "no", "condition": "fair" }, "geometry": { "type": "Point", "coordinates": [ -0.014587587427492, 51.540224395421674 ] } },
{ "type": "Feature", "properties": { "id": "node/14120378102", "amenity": "bench", "sensor_name": "bench_60", "seats": 3, "backrest": "yes", "material": "wood", "plaque": "no", "condition": "fair" }, "geometry": { "type": "Point", "coordinates": [ -0.018892687429488, 51.539964995421435 ] } },
{ "type": "Feature", "properties": { "id": "node/14120387328", "amenity": "bench", "sensor_name": "bench_61", "seats": 4, "backrest": "yes", "material": "wood", "plaque": "yes", "condition": "good" }, "geometry": { "type": "Point", "coordinates": [ -0.013973587427496, 51.539765995421341 ] } },
{ "type": "Feature", "properties": { "id": "node/14243739537", "amenity": "bench", "sensor_name": "bench_62", "seats": 3, "backrest": "yes", "material": "wood", "plaque": "no", "condition": "good" }, "geometry": { "type": "Point", "coordinates": [ -0.008535387424962, 51.540114095421679 ] } },
{ "type": "Feature", "properties": { "id": "node/14243777692", "amenity": "bench", "sensor_name": "bench_63", "seats": 3, "backrest": "yes", "material": "wood", "plaque": "no", "condition": "good" }, "geometry": { "type": "Point", "coordinates": [ -0.008783987425273, 51.539766995421424 ] } },
{ "type": "Feature", "properties": { "id": "node/14243777694", "amenity": "bench", "sensor_name": "bench_64", "seats": 3, "backrest": "no", "material": "wood", "plaque": "no", "condition": "damaged" }, "geometry": { "type": "Point", "coordinates": [ -0.008948987425539, 51.53943639542117 ] } }
]
}
